[
    {
        "Altitude(m)": 716353.2635455016,
        "Argument of Periapsis(deg)": 0.0034170363559881197,
        "Eccentricity": 0.0,
        "Inclination(deg)": 45.0,
        "Latitude(deg)": -41.44900585018105,
        "Longitude(deg)": -148.76069374864144,
        "Mean Anomaly(deg)": 248.9144649942442,
        "RAAN(deg)": 69.99677441756253,
        "Satellite Name": "Constellation 1 323",
        "Satellite Number": 323,
        "Semi-Major Axis(m)": 7083131.272910544,
        "Time(s)": 57
    },
    {
        "Altitude(m)": 716361.7459964764,
        "Argument of Periapsis(deg)": 0.003476984362233526,
        "Eccentricity": 0.0,
        "Inclination(deg)": 45.0,
        "Latitude(deg)": -41.46949321093195,
        "Longitude(deg)": -148.68891982609196,
        "Mean Anomaly(deg)": 248.97516613449415,
        "RAAN(deg)": 69.99671782839695,
        "Satellite Name": "Constellation 1 323",
        "Satellite Number": 323,
        "Semi-Major Axis(m)": 7083131.272910544,
        "Time(s)": 58
    },
    {
        "Altitude(m)": 716370.2076413106,
        "Argument of Periapsis(deg)": 0.003536932368478932,
        "Eccentricity": 0.0,
        "Inclination(deg)": 45.0,
        "Latitude(deg)": -41.48993040438479,
        "Longitude(deg)": -148.61709845548174,
        "Mean Anomaly(deg)": 249.03586727474408,
        "RAAN(deg)": 69.9966612392314,
        "Satellite Name": "Constellation 1 323",
        "Satellite Number": 323,
        "Semi-Major Axis(m)": 7083131.272910544,
        "Time(s)": 59
    },
    {
        "Altitude(m)": 716378.6484489908,
        "Argument of Periapsis(deg)": 0.003596880374724337,
        "Eccentricity": 0.0,
        "Inclination(deg)": 45.0,
        "Latitude(deg)": -41.51031736392769,
        "Longitude(deg)": -148.54522935327182,
        "Mean Anomaly(deg)": 249.09656841499392,
        "RAAN(deg)": 69.99660465006583,
        "Satellite Name": "Constellation 1 323",
        "Satellite Number": 323,
        "Semi-Major Axis(m)": 7083131.272910544,
        "Time(s)": 60
    },
    {
        "Altitude(m)": 716387.0683885728,
        "Argument of Periapsis(deg)": 0.0036568283809697427,
        "Eccentricity": 0.0,
        "Inclination(deg)": 45.0,
        "Latitude(deg)": -41.530654023003606,
        "Longitude(deg)": -148.4733127407376,
        "Mean Anomaly(deg)": 249.15726955524383,
        "RAAN(deg)": 69.99654806090025,
        "Satellite Name": "Constellation 1 323",
        "Satellite Number": 323,
        "Semi-Major Axis(m)": 7083131.272910544,
        "Time(s)": 61
    },
    {
        "Altitude(m)": 716395.4674292009,
        "Argument of Periapsis(deg)": 0.003716776387215149,
        "Eccentricity": 0.0,
        "Inclination(deg)": 45.0,
        "Latitude(deg)": -41.55094031511163,
        "Longitude(deg)": -148.40134867158275,
        "Mean Anomaly(deg)": 249.21797069549373,
        "RAAN(deg)": 69.99649147173469,
        "Satellite Name": "Constellation 1 323",
        "Satellite Number": 323,
        "Semi-Major Axis(m)": 7083131.272910544,
        "Time(s)": 62
    },
    {
        "Altitude(m)": 716403.8455400796,
        "Argument of Periapsis(deg)": 0.003776724393460554,
        "Eccentricity": 0.0,
        "Inclination(deg)": 45.0,
        "Latitude(deg)": -41.57117617380794,
        "Longitude(deg)": -148.3293372000356,
        "Mean Anomaly(deg)": 249.27867183574367,
        "RAAN(deg)": 69.99643488256912,
        "Satellite Name": "Constellation 1 323",
        "Satellite Number": 323,
        "Semi-Major Axis(m)": 7083131.272910544,
        "Time(s)": 63
    },
    {
        "Altitude(m)": 716412.2026904965,
        "Argument of Periapsis(deg)": 0.003836672399705959,
        "Eccentricity": 0.0,
        "Inclination(deg)": 45.0,
        "Latitude(deg)": -41.59136153270637,
        "Longitude(deg)": -148.25727838085143,
        "Mean Anomaly(deg)": 249.33937297599346,
        "RAAN(deg)": 69.99637829340355,
        "Satellite Name": "Constellation 1 323",
        "Satellite Number": 323,
        "Semi-Major Axis(m)": 7083131.272910544,
        "Time(s)": 64
    },
    {
        "Altitude(m)": 716420.5388498147,
        "Argument of Periapsis(deg)": 0.003896620405951365,
        "Eccentricity": 0.0,
        "Inclination(deg)": 45.0,
        "Latitude(deg)": -41.6114963254794,
        "Longitude(deg)": -148.18517226931203,
        "Mean Anomaly(deg)": 249.4000741162434,
        "RAAN(deg)": 69.99632170423797,
        "Satellite Name": "Constellation 1 323",
        "Satellite Number": 323,
        "Semi-Major Axis(m)": 7083131.272910544,
        "Time(s)": 65
    },
    {
        "Altitude(m)": 716428.8539874651,
        "Argument of Periapsis(deg)": 0.003956568412196771,
        "Eccentricity": 0.0,
        "Inclination(deg)": 45.0,
        "Latitude(deg)": -41.63158048585868,
        "Longitude(deg)": -148.11301892122734,
        "Mean Anomaly(deg)": 249.4607752564933,
        "RAAN(deg)": 69.9962651150724,
        "Satellite Name": "Constellation 1 323",
        "Satellite Number": 323,
        "Semi-Major Axis(m)": 7083131.272910544,
        "Time(s)": 66
    },
    {
        "Altitude(m)": 716437.148072963,
        "Argument of Periapsis(deg)": 0.004016516418442176,
        "Eccentricity": 0.0,
        "Inclination(deg)": 45.0,
        "Latitude(deg)": -41.65161394763579,
        "Longitude(deg)": -148.0408185610334,
        "Mean Anomaly(deg)": 249.52147639674322,
        "RAAN(deg)": 69.99620852590685,
        "Satellite Name": "Constellation 1 323",
        "Satellite Number": 323,
        "Semi-Major Axis(m)": 7083131.272910544,
        "Time(s)": 67
    },
    {
        "Altitude(m)": 716445.4210759,
        "Argument of Periapsis(deg)": 0.004076464424687581,
        "Eccentricity": 0.0,
        "Inclination(deg)": 45.0,
        "Latitude(deg)": -41.67159664466405,
        "Longitude(deg)": -147.96857090940392,
        "Mean Anomaly(deg)": 249.58217753699313,
        "RAAN(deg)": 69.99615193674127,
        "Satellite Name": "Constellation 1 323",
        "Satellite Number": 323,
        "Semi-Major Axis(m)": 7083131.272910544,
        "Time(s)": 68
    },
    {
        "Altitude(m)": 716453.6729659311,
        "Argument of Periapsis(deg)": 0.004136412430932987,
        "Eccentricity": 0.0,
        "Inclination(deg)": 45.0,
        "Latitude(deg)": -41.691528510857616,
        "Longitude(deg)": -147.89627619183491,
        "Mean Anomaly(deg)": 249.64287867724298,
        "RAAN(deg)": 69.9960953475757,
        "Satellite Name": "Constellation 1 323",
        "Satellite Number": 323,
        "Semi-Major Axis(m)": 7083131.272910544,
        "Time(s)": 69
    },
    {
        "Altitude(m)": 716461.9037128001,
        "Argument of Periapsis(deg)": 0.004196360437178394,
        "Eccentricity": 0.0,
        "Inclination(deg)": 45.0,
        "Latitude(deg)": -41.711409480193545,
        "Longitude(deg)": -147.82393446625585,
        "Mean Anomaly(deg)": 249.7035798174929,
        "RAAN(deg)": 69.99603875841012,
        "Satellite Name": "Constellation 1 323",
        "Satellite Number": 323,
        "Semi-Major Axis(m)": 7083131.272910544,
        "Time(s)": 70
    },
    {
        "Altitude(m)": 716470.1132863231,
        "Argument of Periapsis(deg)": 0.004256308443423799,
        "Eccentricity": 0.0,
        "Inclination(deg)": 45.0,
        "Latitude(deg)": -41.73123948671213,
        "Longitude(deg)": -147.75154579112856,
        "Mean Anomaly(deg)": 249.76428095774284,
        "RAAN(deg)": 69.99598216924456,
        "Satellite Name": "Constellation 1 323",
        "Satellite Number": 323,
        "Semi-Major Axis(m)": 7083131.272910544,
        "Time(s)": 71
    },
    {
        "Altitude(m)": 716478.3016563861,
        "Argument of Periapsis(deg)": 0.004316256449669204,
        "Eccentricity": 0.0,
        "Inclination(deg)": 45.0,
        "Latitude(deg)": -41.75101846451784,
        "Longitude(deg)": -147.67911022544746,
        "Mean Anomaly(deg)": 249.82498209799272,
        "RAAN(deg)": 69.99592558007899,
        "Satellite Name": "Constellation 1 323",
        "Satellite Number": 323,
        "Semi-Major Axis(m)": 7083131.272910544,
        "Time(s)": 72
    },
    {
        "Altitude(m)": 716486.4687929616,
        "Argument of Periapsis(deg)": 0.00437620445591461,
        "Eccentricity": 0.0,
        "Inclination(deg)": 45.0,
        "Latitude(deg)": -41.770746347780104,
        "Longitude(deg)": -147.6066278287403,
        "Mean Anomaly(deg)": 249.88568323824262,
        "RAAN(deg)": 69.99586899091342,
        "Satellite Name": "Constellation 1 323",
        "Satellite Number": 323,
        "Semi-Major Axis(m)": 7083131.272910544,
        "Time(s)": 73
    },
    {
        "Altitude(m)": 716494.6146660898,
        "Argument of Periapsis(deg)": 0.004436152462160016,
        "Eccentricity": 0.0,
        "Inclination(deg)": 45.0,
        "Latitude(deg)": -41.7904230707338,
        "Longitude(deg)": -147.5340988291664,
        "Mean Anomaly(deg)": 249.94638437849255,
        "RAAN(deg)": 69.99581240174786,
        "Satellite Name": "Constellation 1 323",
        "Satellite Number": 323,
        "Semi-Major Axis(m)": 7083131.272910544,
        "Time(s)": 74
    },
    {
        "Altitude(m)": 716502.7392458939,
        "Argument of Periapsis(deg)": 0.0044961004684054215,
        "Eccentricity": 0.0,
        "Inclination(deg)": 45.0,
        "Latitude(deg)": -41.81004856768127,
        "Longitude(deg)": -147.46152295112827,
        "Mean Anomaly(deg)": 250.00708551874249,
        "RAAN(deg)": 69.99575581258229,
        "Satellite Name": "Constellation 1 323",
        "Satellite Number": 323,
        "Semi-Major Axis(m)": 7083131.272910544,
        "Time(s)": 75
    }
]